1 20253U 89077A   26076.24302318 -.00000360  00000-0  00000-0 0  9997
2 20253  12.4467 351.7161 0008334 351.2131  44.9088  1.00280881259643
1 20776U 90079A   26075.85715124  .00000134  00000-0  00000-0 0  9998
2 20776  13.3696 350.4388 0003059  11.2158 154.7705  1.00276896129963
1 22787U 93056A   26073.50268183  .00000131  00000-0  00000-0 0  9995
2 22787  11.8626   4.0673 0011263 350.7252  26.9952  1.00268324117603
1 23467U 95003A   26076.09852383 -.00000015  00000-0  00000-0 0  9995
2 23467   9.6820  13.5307 0003741 344.9246  24.0382  1.00275143114036
1 23967U 96042A   26076.12972395 -.00000231  00000-0  00000-0 0  9994
2 23967  11.0290  17.5756 0003159 100.4129  73.1040  1.00242073108562
1 25639U 99009B   26075.36155855 -.00000016  00000-0  00000-0 0  9998
2 25639  12.0118   9.5990 0003633 287.1912 272.1678  0.99025586 50234
1 25967U 99063A   26076.20243759 -.00000181  00000-0  00000-0 0  9990
2 25967   9.8452  27.7153 0005018 306.3680 250.7278  1.00271052 96424
1 27168U 02001A   26076.05878184  .00000105  00000-0  00000-0 0  9995
2 27168  11.0701  22.4516 0099617   5.4847 186.7920  1.00274813 32033
1 28117U 03057A   26075.90310538 -.00000097  00000-0  00000-0 0  9990
2 28117   8.8662  34.2693 0003387 303.6375 237.1125  1.00272296 81522
1 30794U 07007B   26076.01194347 -.00000268  00000-0  00000-0 0  9994
2 30794   5.0670  74.8519 0003884 290.6475 268.5840  1.00273139 69771
1 32294U 07056B   26076.22030668  .00000144  00000-0  00000-0 0  9995
2 32294   5.0186  74.5914 0003921 280.2424 284.3222  1.00271006 67271
1 35943U 09054B   26076.25669668  .00000025  00000-0  00000-0 0  9998
2 35943   0.0548  88.0042 0003582 285.0085 317.2112  1.00272143 60385
1 36582U 10021B   26076.28095793  .00000088  00000-0  00000-0 0  9998
2 36582   0.0306 224.0591 0002489 144.0026 281.1319  1.00269414 58036
1 38098U 12011A   26076.14991738 -.00000059  00000-0  00000-0 0  9991
2 38098   0.0209 229.4818 0001615 136.5174 294.7802  1.00274021  6268
1 39034U 12075A   26076.21743099  .00000099  00000-0  00000-0 0  9998
2 39034   0.0716   3.7816 0003911 353.1299 308.8805  1.00273403 48235
1 40296U 14069A   26075.45777683  .00000138  00000-0  00000-0 0  9990
2 40296  63.4587 224.5217 6683235 271.1666  19.0558  2.00583007 83375
1 44453U 19046A   26076.00019434 -.00000016  00000-0  00000-0 0  9990
2 44453  63.0441  62.5647 7046625 274.6033  15.0643  2.00620007 48496
1 45254U 20015A   26075.74589580  .00000010  00000-0  00000-0 0  9995
2 45254  65.5026 328.8319 6887763 279.4573  14.7503  2.00605195 44435
1 52145U 22030A   26075.25758800  .00000275  00000-0  00000-0 0  9993
2 52145  62.6688 150.7250 6760595 272.9410  17.8286  2.00613306 29169
1 26635U 00080A   21013.46269075 0.00000000  00000-0  00000-0 0    09
2 26635   9.2857  29.8038 0014383 186.3086 173.6859  1.00273100    09
1 34810U 09020A   25358.93258989 0.00000000  00000-0  00000-0 0    06
2 34810   2.7881  81.1408 0004972 246.2147 113.7417  1.00270000    08
1 40614U 15022B   25359.93496764 0.00000000  00000-0  00000-0 0    00
2 40614   0.0160 108.2839 0003453 352.8976   7.0980  1.00270000    04
